LEMUR-2-AMANDA-SVANTE   
1 48269U 21034B   26068.77637527  .00030872  00000+0  11134-2 0  9996
2 48269  97.5829 144.8625 0002703 205.4721 154.6385 15.28469003265849
STARLINK-32707          
1 62478U 24254S   26068.23707882  .00024903  00000+0  91105-3 0  9999
2 62478  43.0003  18.9358 0002324 257.6288 102.4304 15.27592539 67580
